{
  "type": "FeatureCollection",
  "features": [
    {
      "type": "Feature",
      "properties": {
        "norad_id": 44334,
        "name": "EUTELSAT 7C",
        "group": "eutelsat",
        "lat": -0.021481882699276356,
        "lon": 168.6581604848695,
        "alt_km": 35784.14645691438,
        "timestamp": "2025-12-18T04:58:34.252120+00:00",
        "meta_object_name": "EUTELSAT 7C",
        "meta_object_id": "2019-034B",
        "meta_epoch": "2025-12-17T18:29:45.341952",
        "meta_mean_motion": 1.00271366,
        "meta_eccentricity": 0.00030213,
        "meta_inclination": 0.0726,
        "meta_ra_of_asc_node": 178.5781,
        "meta_arg_of_pericenter": 70.8485,
        "meta_mean_anomaly": 121.644,
        "meta_ephemeris_type": 0,
        "meta_classification_type": "U",
        "meta_norad_cat_id": 44334,
        "meta_element_set_no": 999,
        "meta_rev_at_epoch": 501,
        "meta_bstar": 0,
        "meta_mean_motion_dot": 7.3e-07,
        "meta_mean_motion_ddot": 0,
        "tle_line1": "1 44334U 19034B   25351.77066368  .00000073  00000+0  00000+0 0  9992",
        "tle_line2": "2 44334   0.0726 178.5781 0003021  70.8485 121.6440  1.00271366  5010"
      },
      "geometry": {
        "type": "Point",
        "coordinates": [
          168.6581604848695,
          -0.021481882699276356
        ]
      }
    },
    {
      "type": "Feature",
      "properties": {
        "norad_id": 44624,
        "name": "EUTELSAT 5 WEST B",
        "group": "eutelsat",
        "lat": -0.005829376075368591,
        "lon": 156.67819809487992,
        "alt_km": 35791.197906255606,
        "timestamp": "2025-12-18T04:58:34.252132+00:00",
        "meta_object_name": "EUTELSAT 5 WEST B",
        "meta_object_id": "2019-067A",
        "meta_epoch": "2025-12-17T18:26:15.676800",
        "meta_mean_motion": 1.00270214,
        "meta_eccentricity": 0.00030814,
        "meta_inclination": 0.0703,
        "meta_ra_of_asc_node": 329.9765,
        "meta_arg_of_pericenter": 297.7811,
        "meta_mean_anomaly": 90.458,
        "meta_ephemeris_type": 0,
        "meta_classification_type": "U",
        "meta_norad_cat_id": 44624,
        "meta_element_set_no": 999,
        "meta_rev_at_epoch": 2261,
        "meta_bstar": 0,
        "meta_mean_motion_dot": -1.7e-07,
        "meta_mean_motion_ddot": 0,
        "tle_line1": "1 44624U 19067A   25351.76823700 -.00000017  00000+0  00000+0 0  9999",
        "tle_line2": "2 44624   0.0703 329.9765 0003081 297.7811  90.4580  1.00270214 22614"
      },
      "geometry": {
        "type": "Point",
        "coordinates": [
          156.67819809487992,
          -0.005829376075368591
        ]
      }
    },
    {
      "type": "Feature",
      "properties": {
        "norad_id": 45027,
        "name": "EUTELSAT KONNECT",
        "group": "eutelsat",
        "lat": 0.06185322736835996,
        "lon": 168.8923427791507,
        "alt_km": 35788.51269994396,
        "timestamp": "2025-12-18T04:58:34.252143+00:00",
        "meta_object_name": "EUTELSAT KONNECT",
        "meta_object_id": "2020-005B",
        "meta_epoch": "2025-12-17T18:29:45.341952",
        "meta_mean_motion": 1.00271708,
        "meta_eccentricity": 0.00013012,
        "meta_inclination": 0.0711,
        "meta_ra_of_asc_node": 96.0401,
        "meta_arg_of_pericenter": 189.4666,
        "meta_mean_anomaly": 85.7765,
        "meta_ephemeris_type": 0,
        "meta_classification_type": "U",
        "meta_norad_cat_id": 45027,
        "meta_element_set_no": 999,
        "meta_rev_at_epoch": 2251,
        "meta_bstar": 0,
        "meta_mean_motion_dot": 7.4e-07,
        "meta_mean_motion_ddot": 0,
        "tle_line1": "1 45027U 20005B   25351.77066368  .00000074  00000+0  00000+0 0  9993",
        "tle_line2": "2 45027   0.0711  96.0401 0001301 189.4666  85.7765  1.00271708 22518"
      },
      "geometry": {
        "type": "Point",
        "coordinates": [
          168.8923427791507,
          0.06185322736835996
        ]
      }
    },
    {
      "type": "Feature",
      "properties": {
        "norad_id": 49056,
        "name": "EUTELSAT QUANTUM",
        "group": "eutelsat",
        "lat": -0.01618235656176328,
        "lon": -150.62550941475376,
        "alt_km": 35780.99967524718,
        "timestamp": "2025-12-18T04:58:34.252155+00:00",
        "meta_object_name": "EUTELSAT QUANTUM",
        "meta_object_id": "2021-069B",
        "meta_epoch": "2025-12-17T20:42:38.695104",
        "meta_mean_motion": 1.00271046,
        "meta_eccentricity": 0.00033356,
        "meta_inclination": 0.014,
        "meta_ra_of_asc_node": 16.9545,
        "meta_arg_of_pericenter": 260.7488,
        "meta_mean_anomaly": 167.3985,
        "meta_ephemeris_type": 0,
        "meta_classification_type": "U",
        "meta_norad_cat_id": 49056,
        "meta_element_set_no": 999,
        "meta_rev_at_epoch": 1611,
        "meta_bstar": 0,
        "meta_mean_motion_dot": 1.51e-06,
        "meta_mean_motion_ddot": 0,
        "tle_line1": "1 49056U 21069B   25351.86294786  .00000151  00000+0  00000+0 0  9993",
        "tle_line2": "2 49056   0.0140  16.9545 0003335 260.7488 167.3985  1.00271046 16119"
      },
      "geometry": {
        "type": "Point",
        "coordinates": [
          -150.62550941475376,
          -0.01618235656176328
        ]
      }
    },
    {
      "type": "Feature",
      "properties": {
        "norad_id": 53765,
        "name": "EUTELSAT KONNECT VHTS",
        "group": "eutelsat",
        "lat": 0.0564059459308068,
        "lon": 164.40635445695486,
        "alt_km": 35784.43729717487,
        "timestamp": "2025-12-18T04:58:34.252167+00:00",
        "meta_object_name": "EUTELSAT KONNECT VHTS",
        "meta_object_id": "2022-110A",
        "meta_epoch": "2025-12-16T21:55:49.974240",
        "meta_mean_motion": 1.00270385,
        "meta_eccentricity": 0.00023075,
        "meta_inclination": 0.0652,
        "meta_ra_of_asc_node": 101.283,
        "meta_arg_of_pericenter": 141.3704,
        "meta_mean_anomaly": 174.8367,
        "meta_ephemeris_type": 0,
        "meta_classification_type": "U",
        "meta_norad_cat_id": 53765,
        "meta_element_set_no": 999,
        "meta_rev_at_epoch": 499,
        "meta_bstar": 0,
        "meta_mean_motion_dot": 4.1e-07,
        "meta_mean_motion_ddot": 0,
        "tle_line1": "1 53765U 22110A   25350.91377285  .00000041  00000+0  00000+0 0  9992",
        "tle_line2": "2 53765   0.0652 101.2830 0002307 141.3704 174.8367  1.00270385  4992"
      },
      "geometry": {
        "type": "Point",
        "coordinates": [
          164.40635445695486,
          0.0564059459308068
        ]
      }
    },
    {
      "type": "Feature",
      "properties": {
        "norad_id": 54048,
        "name": "EUTELSAT HOTBIRD 13F",
        "group": "eutelsat",
        "lat": -0.051200027337167164,
        "lon": 174.7008823078175,
        "alt_km": 35795.31117765055,
        "timestamp": "2025-12-18T04:58:34.252179+00:00",
        "meta_object_name": "EUTELSAT HOTBIRD 13F",
        "meta_object_id": "2022-134A",
        "meta_epoch": "2025-12-17T18:31:22.686240",
        "meta_mean_motion": 1.00271349,
        "meta_eccentricity": 0.00022128,
        "meta_inclination": 0.0531,
        "meta_ra_of_asc_node": 292.166,
        "meta_arg_of_pericenter": 72.4278,
        "meta_mean_anomaly": 12.8877,
        "meta_ephemeris_type": 0,
        "meta_classification_type": "U",
        "meta_norad_cat_id": 54048,
        "meta_element_set_no": 999,
        "meta_rev_at_epoch": 1155,
        "meta_bstar": 0,
        "meta_mean_motion_dot": 1.12e-06,
        "meta_mean_motion_ddot": 0,
        "tle_line1": "1 54048U 22134A   25351.77179035  .00000112  00000+0  00000+0 0  9990",
        "tle_line2": "2 54048   0.0531 292.1660 0002212  72.4278  12.8877  1.00271349 11557"
      },
      "geometry": {
        "type": "Point",
        "coordinates": [
          174.7008823078175,
          -0.051200027337167164
        ]
      }
    },
    {
      "type": "Feature",
      "properties": {
        "norad_id": 54225,
        "name": "EUTELSAT HOTBIRD 13G",
        "group": "eutelsat",
        "lat": -0.04193784688315103,
        "lon": 174.6947799906483,
        "alt_km": 35778.08557149567,
        "timestamp": "2025-12-18T04:58:34.252190+00:00",
        "meta_object_name": "EUTELSAT HOTBIRD 13G",
        "meta_object_id": "2022-146A",
        "meta_epoch": "2025-12-17T18:31:22.686240",
        "meta_mean_motion": 1.00271375,
        "meta_eccentricity": 0.00019269,
        "meta_inclination": 0.0522,
        "meta_ra_of_asc_node": 235.4156,
        "meta_arg_of_pericenter": 298.3682,
        "meta_mean_anomaly": 203.6955,
        "meta_ephemeris_type": 0,
        "meta_classification_type": "U",
        "meta_norad_cat_id": 54225,
        "meta_element_set_no": 999,
        "meta_rev_at_epoch": 564,
        "meta_bstar": 0,
        "meta_mean_motion_dot": 1.12e-06,
        "meta_mean_motion_ddot": 0,
        "tle_line1": "1 54225U 22146A   25351.77179035  .00000112  00000+0  00000+0 0  9990",
        "tle_line2": "2 54225   0.0522 235.4156 0001926 298.3682 203.6955  1.00271375  5642"
      },
      "geometry": {
        "type": "Point",
        "coordinates": [
          174.6947799906483,
          -0.04193784688315103
        ]
      }
    }
  ]
}